<?xml version="1.0" encoding="UTF-8"?>
<ndm xmlns:xsi="http://www.w3.org/2001/XMLSchema-instance" xsi:noNamespaceSchemaLocation="https://sanaregistry.org/r/ndmxml_unqualified/ndmxml-2.0.0-master-2.0.xsd">
<omm id="CCSDS_OMM_VERS" version="2.0">
<header><CREATION_DATE/><ORIGINATOR/></header><body><segment><metadata><OBJECT_NAME>IRIDIUM 36 [-]</OBJECT_NAME><OBJECT_ID>1997-056C</OBJECT_ID><CENTER_NAME>EARTH</CENTER_NAME><REF_FRAME>TEME</REF_FRAME><TIME_SYSTEM>UTC</TIME_SYSTEM><MEAN_ELEMENT_THEORY>SGP4</MEAN_ELEMENT_THEORY></metadata><data><meanElements><EPOCH>2023-11-20T18:09:34.073568</EPOCH><MEAN_MOTION>14.36513028</MEAN_MOTION><ECCENTRICITY>.0002267</ECCENTRICITY><INCLINATION>86.3989</INCLINATION><RA_OF_ASC_NODE>54.1701</RA_OF_ASC_NODE><ARG_OF_PERICENTER>93.1374</ARG_OF_PERICENTER><MEAN_ANOMALY>267.0082</MEAN_ANOMALY></meanElements><tleParameters><EPHEMERIS_TYPE>0</EPHEMERIS_TYPE><CLASSIFICATION_TYPE>U</CLASSIFICATION_TYPE><NORAD_CAT_ID>24967</NORAD_CAT_ID><ELEMENT_SET_NO>999</ELEMENT_SET_NO><REV_AT_EPOCH>36972</REV_AT_EPOCH><BSTAR>.13269E-3</BSTAR><MEAN_MOTION_DOT>.409E-5</MEAN_MOTION_DOT><MEAN_MOTION_DDOT>0</MEAN_MOTION_DDOT></tleParameters></data></segment></body></omm>
<omm id="CCSDS_OMM_VERS" version="2.0">
<header><CREATION_DATE/><ORIGINATOR/></header><body><segment><metadata><OBJECT_NAME>IRIDIUM 39 [-]</OBJECT_NAME><OBJECT_ID>1997-069D</OBJECT_ID><CENTER_NAME>EARTH</CENTER_NAME><REF_FRAME>TEME</REF_FRAME><TIME_SYSTEM>UTC</TIME_SYSTEM><MEAN_ELEMENT_THEORY>SGP4</MEAN_ELEMENT_THEORY></metadata><data><meanElements><EPOCH>2023-11-20T20:38:48.495264</EPOCH><MEAN_MOTION>14.47503841</MEAN_MOTION><ECCENTRICITY>.0020236</ECCENTRICITY><INCLINATION>86.3896</INCLINATION><RA_OF_ASC_NODE>97.1238</RA_OF_ASC_NODE><ARG_OF_PERICENTER>65.6852</ARG_OF_PERICENTER><MEAN_ANOMALY>294.6461</MEAN_ANOMALY></meanElements><tleParameters><EPHEMERIS_TYPE>0</EPHEMERIS_TYPE><CLASSIFICATION_TYPE>U</CLASSIFICATION_TYPE><NORAD_CAT_ID>25042</NORAD_CAT_ID><ELEMENT_SET_NO>999</ELEMENT_SET_NO><REV_AT_EPOCH>36583</REV_AT_EPOCH><BSTAR>.18983E-3</BSTAR><MEAN_MOTION_DOT>.72E-5</MEAN_MOTION_DOT><MEAN_MOTION_DDOT>0</MEAN_MOTION_DDOT></tleParameters></data></segment></body></omm>
<omm id="CCSDS_OMM_VERS" version="2.0">
<header><CREATION_DATE/><ORIGINATOR/></header><body><segment><metadata><OBJECT_NAME>IRIDIUM 38 [-]</OBJECT_NAME><OBJECT_ID>1997-069E</OBJECT_ID><CENTER_NAME>EARTH</CENTER_NAME><REF_FRAME>TEME</REF_FRAME><TIME_SYSTEM>UTC</TIME_SYSTEM><MEAN_ELEMENT_THEORY>SGP4</MEAN_ELEMENT_THEORY></metadata><data><meanElements><EPOCH>2023-11-20T21:36:13.076640</EPOCH><MEAN_MOTION>14.36968785</MEAN_MOTION><ECCENTRICITY>.0002412</ECCENTRICITY><INCLINATION>86.3935</INCLINATION><RA_OF_ASC_NODE>114.6043</RA_OF_ASC_NODE><ARG_OF_PERICENTER>144.8124</ARG_OF_PERICENTER><MEAN_ANOMALY>215.3233</MEAN_ANOMALY></meanElements><tleParameters><EPHEMERIS_TYPE>0</EPHEMERIS_TYPE><CLASSIFICATION_TYPE>U</CLASSIFICATION_TYPE><NORAD_CAT_ID>25043</NORAD_CAT_ID><ELEMENT_SET_NO>999</ELEMENT_SET_NO><REV_AT_EPOCH>36345</REV_AT_EPOCH><BSTAR>.16295E-3</BSTAR><MEAN_MOTION_DOT>.502E-5</MEAN_MOTION_DOT><MEAN_MOTION_DDOT>0</MEAN_MOTION_DDOT></tleParameters></data></segment></body></omm>
<omm id="CCSDS_OMM_VERS" version="2.0">
<header><CREATION_DATE/><ORIGINATOR/></header><body><segment><metadata><OBJECT_NAME>IRIDIUM 42 [-]</OBJECT_NAME><OBJECT_ID>1997-077A</OBJECT_ID><CENTER_NAME>EARTH</CENTER_NAME><REF_FRAME>TEME</REF_FRAME><TIME_SYSTEM>UTC</TIME_SYSTEM><MEAN_ELEMENT_THEORY>SGP4</MEAN_ELEMENT_THEORY></metadata><data><meanElements><EPOCH>2023-11-20T21:57:09.180576</EPOCH><MEAN_MOTION>14.35276871</MEAN_MOTION><ECCENTRICITY>.000199</ECCENTRICITY><INCLINATION>86.3937</INCLINATION><RA_OF_ASC_NODE>120.0690</RA_OF_ASC_NODE><ARG_OF_PERICENTER>109.4984</ARG_OF_PERICENTER><MEAN_ANOMALY>250.6427</MEAN_ANOMALY></meanElements><tleParameters><EPHEMERIS_TYPE>0</EPHEMERIS_TYPE><CLASSIFICATION_TYPE>U</CLASSIFICATION_TYPE><NORAD_CAT_ID>25077</NORAD_CAT_ID><ELEMENT_SET_NO>999</ELEMENT_SET_NO><REV_AT_EPOCH>35879</REV_AT_EPOCH><BSTAR>.16258E-3</BSTAR><MEAN_MOTION_DOT>.485E-5</MEAN_MOTION_DOT><MEAN_MOTION_DDOT>0</MEAN_MOTION_DDOT></tleParameters></data></segment></body></omm>
<omm id="CCSDS_OMM_VERS" version="2.0">
<header><CREATION_DATE/><ORIGINATOR/></header><body><segment><metadata><OBJECT_NAME>IRIDIUM 44 [-]</OBJECT_NAME><OBJECT_ID>1997-077B</OBJECT_ID><CENTER_NAME>EARTH</CENTER_NAME><REF_FRAME>TEME</REF_FRAME><TIME_SYSTEM>UTC</TIME_SYSTEM><MEAN_ELEMENT_THEORY>SGP4</MEAN_ELEMENT_THEORY></metadata><data><meanElements><EPOCH>2023-11-20T20:58:49.004256</EPOCH><MEAN_MOTION>14.39076430</MEAN_MOTION><ECCENTRICITY>.0003866</ECCENTRICITY><INCLINATION>86.3931</INCLINATION><RA_OF_ASC_NODE>103.5485</RA_OF_ASC_NODE><ARG_OF_PERICENTER>103.5843</ARG_OF_PERICENTER><MEAN_ANOMALY>256.5787</MEAN_ANOMALY></meanElements><tleParameters><EPHEMERIS_TYPE>0</EPHEMERIS_TYPE><CLASSIFICATION_TYPE>U</CLASSIFICATION_TYPE><NORAD_CAT_ID>25078</NORAD_CAT_ID><ELEMENT_SET_NO>999</ELEMENT_SET_NO><REV_AT_EPOCH>36107</REV_AT_EPOCH><BSTAR>.16106E-3</BSTAR><MEAN_MOTION_DOT>.517E-5</MEAN_MOTION_DOT><MEAN_MOTION_DDOT>0</MEAN_MOTION_DDOT></tleParameters></data></segment></body></omm>
<omm id="CCSDS_OMM_VERS" version="2.0">
<header><CREATION_DATE/><ORIGINATOR/></header><body><segment><metadata><OBJECT_NAME>IRIDIUM 45 [-]</OBJECT_NAME><OBJECT_ID>1997-082A</OBJECT_ID><CENTER_NAME>EARTH</CENTER_NAME><REF_FRAME>TEME</REF_FRAME><TIME_SYSTEM>UTC</TIME_SYSTEM><MEAN_ELEMENT_THEORY>SGP4</MEAN_ELEMENT_THEORY></metadata><data><meanElements><EPOCH>2023-11-20T22:17:14.985888</EPOCH><MEAN_MOTION>14.96846227</MEAN_MOTION><ECCENTRICITY>.017374</ECCENTRICITY><INCLINATION>86.3736</INCLINATION><RA_OF_ASC_NODE>320.0014</RA_OF_ASC_NODE><ARG_OF_PERICENTER>277.3248</ARG_OF_PERICENTER><MEAN_ANOMALY>80.8265</MEAN_ANOMALY></meanElements><tleParameters><EPHEMERIS_TYPE>0</EPHEMERIS_TYPE><CLASSIFICATION_TYPE>U</CLASSIFICATION_TYPE><NORAD_CAT_ID>25104</NORAD_CAT_ID><ELEMENT_SET_NO>999</ELEMENT_SET_NO><REV_AT_EPOCH>36549</REV_AT_EPOCH><BSTAR>.68872E-3</BSTAR><MEAN_MOTION_DOT>.10794E-3</MEAN_MOTION_DOT><MEAN_MOTION_DDOT>0</MEAN_MOTION_DDOT></tleParameters></data></segment></body></omm>
<omm id="CCSDS_OMM_VERS" version="2.0">
<header><CREATION_DATE/><ORIGINATOR/></header><body><segment><metadata><OBJECT_NAME>IRIDIUM 24 [-]</OBJECT_NAME><OBJECT_ID>1997-082B</OBJECT_ID><CENTER_NAME>EARTH</CENTER_NAME><REF_FRAME>TEME</REF_FRAME><TIME_SYSTEM>UTC</TIME_SYSTEM><MEAN_ELEMENT_THEORY>SGP4</MEAN_ELEMENT_THEORY></metadata><data><meanElements><EPOCH>2023-11-20T22:36:07.590528</EPOCH><MEAN_MOTION>14.40835643</MEAN_MOTION><ECCENTRICITY>.001201</ECCENTRICITY><INCLINATION>86.3885</INCLINATION><RA_OF_ASC_NODE>323.4790</RA_OF_ASC_NODE><ARG_OF_PERICENTER>162.9659</ARG_OF_PERICENTER><MEAN_ANOMALY>197.1946</MEAN_ANOMALY></meanElements><tleParameters><EPHEMERIS_TYPE>0</EPHEMERIS_TYPE><CLASSIFICATION_TYPE>U</CLASSIFICATION_TYPE><NORAD_CAT_ID>25105</NORAD_CAT_ID><ELEMENT_SET_NO>999</ELEMENT_SET_NO><REV_AT_EPOCH>36049</REV_AT_EPOCH><BSTAR>.16605E-3</BSTAR><MEAN_MOTION_DOT>.552E-5</MEAN_MOTION_DOT><MEAN_MOTION_DDOT>0</MEAN_MOTION_DDOT></tleParameters></data></segment></body></omm>
<omm id="CCSDS_OMM_VERS" version="2.0">
<header><CREATION_DATE/><ORIGINATOR/></header><body><segment><metadata><OBJECT_NAME>IRIDIUM 51 [-]</OBJECT_NAME><OBJECT_ID>1998-018A</OBJECT_ID><CENTER_NAME>EARTH</CENTER_NAME><REF_FRAME>TEME</REF_FRAME><TIME_SYSTEM>UTC</TIME_SYSTEM><MEAN_ELEMENT_THEORY>SGP4</MEAN_ELEMENT_THEORY></metadata><data><meanElements><EPOCH>2023-11-20T17:30:22.273344</EPOCH><MEAN_MOTION>15.03768361</MEAN_MOTION><ECCENTRICITY>.0160241</ECCENTRICITY><INCLINATION>86.3914</INCLINATION><RA_OF_ASC_NODE>330.5243</RA_OF_ASC_NODE><ARG_OF_PERICENTER>230.2586</ARG_OF_PERICENTER><MEAN_ANOMALY>128.4440</MEAN_ANOMALY></meanElements><tleParameters><EPHEMERIS_TYPE>0</EPHEMERIS_TYPE><CLASSIFICATION_TYPE>U</CLASSIFICATION_TYPE><NORAD_CAT_ID>25262</NORAD_CAT_ID><ELEMENT_SET_NO>999</ELEMENT_SET_NO><REV_AT_EPOCH>35986</REV_AT_EPOCH><BSTAR>.53176E-3</BSTAR><MEAN_MOTION_DOT>.9746E-4</MEAN_MOTION_DOT><MEAN_MOTION_DDOT>0</MEAN_MOTION_DDOT></tleParameters></data></segment></body></omm>

</ndm>
