IRIDIUM 36 [-]          
1 24967U 97056C   23324.75664437  .00000409  00000+0  13269-3 0  9997
2 24967  86.3989  54.1701 0002267  93.1374 267.0082 14.36513028369720
IRIDIUM 39 [-]          
1 25042U 97069D   23324.86028351  .00000720  00000+0  18983-3 0  9991
2 25042  86.3896  97.1238 0020236  65.6852 294.6461 14.47503841365834
IRIDIUM 38 [-]          
1 25043U 97069E   23324.90015135  .00000502  00000+0  16295-3 0  9995
2 25043  86.3935 114.6043 0002412 144.8124 215.3233 14.36968785363459
IRIDIUM 42 [-]          
1 25077U 97077A   23324.91468959  .00000485  00000+0  16258-3 0  9997
2 25077  86.3937 120.0690 0001990 109.4984 250.6427 14.35276871358793
IRIDIUM 44 [-]          
1 25078U 97077B   23324.87417829  .00000517  00000+0  16106-3 0  9991
2 25078  86.3931 103.5485 0003866 103.5843 256.5787 14.39076430361071
IRIDIUM 45 [-]          
1 25104U 97082A   23324.92864567  .00010794  00000+0  68872-3 0  9993
2 25104  86.3736 320.0014 0173740 277.3248  80.8265 14.96846227365497
IRIDIUM 24 [-]          
1 25105U 97082B   23324.94175452  .00000552  00000+0  16605-3 0  9992
2 25105  86.3885 323.4790 0012010 162.9659 197.1946 14.40835643360490
IRIDIUM 51 [-]          
1 25262U 98018A   23324.72942446  .00009746  00000+0  53176-3 0  9995
2 25262  86.3914 330.5243 0160241 230.2586 128.4440 15.03768361359864
